COSMOGIRLSAT            
1 60953U 98067WT  24327.00962461  .00521951  00000+0  19098-2 0  9990
2 60953  51.6218 244.8248 0009660 175.7658 184.3430 15.86421170 13248
